ORBCOMM FM119           
1 41180U 15081B   24237.46826494  .00002020  00000+0  48274-3 0  9991
2 41180  46.9995 156.3969 0000819 144.5769 215.5170 14.56917456462439
ORBCOMM FM105           
1 41181U 15081C   24237.44462479  .00001001  00000+0  33185-3 0  9992
2 41181  47.0015 133.1723 0001363  57.7548 302.3464 14.44571146457839
ORBCOMM FM110           
1 41182U 15081D   24237.46962024  .00001837  00000+0  44148-3 0  9994
2 41182  46.9996 246.5571 0002641 262.6080  97.4505 14.57029167461056
ORBCOMM FM118           
1 41183U 15081E   24237.44747159  .00001374  00000+0  33969-3 0  9998
2 41183  47.0030 246.9948 0002814 257.6064 102.4506 14.57011682461150
ORBCOMM FM112           
1 41184U 15081F   24237.51392189  .00002704  00000+0  63373-3 0  9996
2 41184  46.9980 155.3807 0001228  97.6180 262.4844 14.56907049462387
ORBCOMM FM113           
1 41185U 15081G   24237.49103872  .00002496  00000+0  58786-3 0  9993
2 41185  46.9998 155.7713 0000862 122.0586 238.0383 14.56914810462362
